{"type": "FeatureCollection", "features": [ {"type": "Feature", "properties": {"norad_id": 29963, "name": "FENGYUN 1C DEB", "group": "fengyun-1c-debris", "lat": -47.911208288199376, "lon": -107.86911530541764, "alt_km": 772.565989133429, "timestamp": "2025-12-23T16:57:12.624954+00:00", "meta": {"OBJECT_NAME": "FENGYUN 1C DEB", "OBJECT_ID": "1999-025KM", "EPOCH": "2025-12-22T23:17:30.470784", "MEAN_MOTION": 14.2949413, "ECCENTRICITY": 0.0051006, "INCLINATION": 98.9986, "RA_OF_ASC_NODE": 241.2668, "ARG_OF_PERICENTER": 272.3655, "MEAN_ANOMALY": 213.6611, "EPHEMERIS_TYPE": 0, "CLASSIFICATION_TYPE": "U", "NORAD_CAT_ID": 29963, "ELEMENT_SET_NO": 999, "REV_AT_EPOCH": 98289, "BSTAR": 0.0006155016, "MEAN_MOTION_DOT": 1.547e-05, "MEAN_MOTION_DDOT": 0}, "tle": {"line1": "1 29963U 99025KM  25356.97049156  .00001547  00000+0  61550-3 0  9992", "line2": "2 29963  98.9986 241.2668 0051006 272.3655 213.6611 14.29494130982894"}}, "geometry": {"type": "Point", "coordinates": [-107.86911530541764, -47.911208288199376]}}, {"type": "Feature", "properties": {"norad_id": 29964, "name": "FENGYUN 1C DEB", "group": "fengyun-1c-debris", "lat": -49.57259885588825, "lon": 9.384815598206858, "alt_km": 796.9580905130015, "timestamp": "2025-12-23T16:57:12.624965+00:00", "meta": {"OBJECT_NAME": "FENGYUN 1C DEB", "OBJECT_ID": "1999-025KN", "EPOCH": "2025-12-23T03:52:08.702976", "MEAN_MOTION": 14.02766201, "ECCENTRICITY": 0.01308465, "INCLINATION": 98.3702, "RA_OF_ASC_NODE": 198.8355, "ARG_OF_PERICENTER": 239.8798, "MEAN_ANOMALY": 118.9347, "EPHEMERIS_TYPE": 0, "CLASSIFICATION_TYPE": "U", "NORAD_CAT_ID": 29964, "ELEMENT_SET_NO": 999, "REV_AT_EPOCH": 96463, "BSTAR": 0.0006385791, "MEAN_MOTION_DOT": 1.025e-05, "MEAN_MOTION_DDOT": 0}, "tle": {"line1": "1 29964U 99025KN  25357.16121184  .00001025  00000+0  63858-3 0  9991", "line2": "2 29964  98.3702 198.8355 0130846 239.8798 118.9347 14.02766201964638"}}, "geometry": {"type": "Point", "coordinates": [9.384815598206858, -49.57259885588825]}}, {"type": "Feature", "properties": {"norad_id": 29965, "name": "FENGYUN 1C DEB", "group": "fengyun-1c-debris", "lat": 65.33651946930583, "lon": -28.06157143463609, "alt_km": 808.6356903799078, "timestamp": "2025-12-23T16:57:12.624976+00:00", "meta": {"OBJECT_NAME": "FENGYUN 1C DEB", "OBJECT_ID": "1999-025KP", "EPOCH": "2025-12-22T19:08:03.274368", "MEAN_MOTION": 13.95779421, "ECCENTRICITY": 0.0145838, "INCLINATION": 98.963, "RA_OF_ASC_NODE": 351.1565, "ARG_OF_PERICENTER": 40.5496, "MEAN_ANOMALY": 139.8861, "EPHEMERIS_TYPE": 0, "CLASSIFICATION_TYPE": "U", "NORAD_CAT_ID": 29965, "ELEMENT_SET_NO": 999, "REV_AT_EPOCH": 96416, "BSTAR": 0.00016826636, "MEAN_MOTION_DOT": 2.09e-06, "MEAN_MOTION_DDOT": 0}, "tle": {"line1": "1 29965U 99025KP  25356.79726012  .00000209  00000+0  16827-3 0  9998", "line2": "2 29965  98.9630 351.1565 0145838  40.5496 139.8861 13.95779421964161"}}, "geometry": {"type": "Point", "coordinates": [-28.06157143463609, 65.33651946930583]}}, {"type": "Feature", "properties": {"norad_id": 29966, "name": "FENGYUN 1C DEB", "group": "fengyun-1c-debris", "lat": 13.267262595352511, "lon": -156.69108939206353, "alt_km": 792.4283220411126, "timestamp": "2025-12-23T16:57:12.624987+00:00", "meta": {"OBJECT_NAME": "FENGYUN 1C DEB", "OBJECT_ID": "1999-025KQ", "EPOCH": "2025-12-22T20:40:48.623232", "MEAN_MOTION": 14.25770084, "ECCENTRICITY": 0.00393016, "INCLINATION": 99.491, "RA_OF_ASC_NODE": 204.6557, "ARG_OF_PERICENTER": 316.6412, "MEAN_ANOMALY": 43.1675, "EPHEMERIS_TYPE": 0, "CLASSIFICATION_TYPE": "U", "NORAD_CAT_ID": 29966, "ELEMENT_SET_NO": 999, "REV_AT_EPOCH": 98187, "BSTAR": 0.00033864531, "MEAN_MOTION_DOT": 7.6e-06, "MEAN_MOTION_DDOT": 0}, "tle": {"line1": "1 29966U 99025KQ  25356.86167388  .00000760  00000+0  33865-3 0  9995", "line2": "2 29966  99.4910 204.6557 0039301 316.6412  43.1675 14.25770084981871"}}, "geometry": {"type": "Point", "coordinates": [-156.69108939206353, 13.267262595352511]}}, {"type": "Feature", "properties": {"norad_id": 29967, "name": "FENGYUN 1C DEB", "group": "fengyun-1c-debris", "lat": 74.55356077266589, "lon": -71.21238297055336, "alt_km": 856.8460842774821, "timestamp": "2025-12-23T16:57:12.624998+00:00", "meta": {"OBJECT_NAME": "FENGYUN 1C DEB", "OBJECT_ID": "1999-025KR", "EPOCH": "2025-12-21T00:57:00.253728", "MEAN_MOTION": 14.23643193, "ECCENTRICITY": 0.00765352, "INCLINATION": 98.8651, "RA_OF_ASC_NODE": 71.7104, "ARG_OF_PERICENTER": 268.349, "MEAN_ANOMALY": 214.5753, "EPHEMERIS_TYPE": 0, "CLASSIFICATION_TYPE": "U", "NORAD_CAT_ID": 29967, "ELEMENT_SET_NO": 999, "REV_AT_EPOCH": 97340, "BSTAR": 0.0010590585, "MEAN_MOTION_DOT": 2.443e-05, "MEAN_MOTION_DDOT": 0}, "tle": {"line1": "1 29967U 99025KR  25355.03958627  .00002443  00000+0  10591-2 0  9998", "line2": "2 29967  98.8651  71.7104 0076535 268.3490 214.5753 14.23643193973406"}}, "geometry": {"type": "Point", "coordinates": [-71.21238297055336, 74.55356077266589]}}, {"type": "Feature", "properties": {"norad_id": 29968, "name": "FENGYUN 1C DEB", "group": "fengyun-1c-debris", "lat": 76.58698089591284, "lon": -152.28852803614865, "alt_km": 908.1592242354382, "timestamp": "2025-12-23T16:57:12.625008+00:00", "meta": {"OBJECT_NAME": "FENGYUN 1C DEB", "OBJECT_ID": "1999-025KS", "EPOCH": "2025-12-22T17:26:36.297600", "MEAN_MOTION": 14.07263997, "ECCENTRICITY": 0.00896096, "INCLINATION": 98.8053, "RA_OF_ASC_NODE": 346.2179, "ARG_OF_PERICENTER": 326.6027, "MEAN_ANOMALY": 212.8378, "EPHEMERIS_TYPE": 0, "CLASSIFICATION_TYPE": "U", "NORAD_CAT_ID": 29968, "ELEMENT_SET_NO": 999, "REV_AT_EPOCH": 97189, "BSTAR": 0.00025233292, "MEAN_MOTION_DOT": 3.95e-06, "MEAN_MOTION_DDOT": 0}, "tle": {"line1": "1 29968U 99025KS  25356.72680900  .00000395  00000+0  25233-3 0  9996", "line2": "2 29968  98.8053 346.2179 0089609 326.6027 212.8378 14.07263997971892"}}, "geometry": {"type": "Point", "coordinates": [-152.28852803614865, 76.58698089591284]}}, {"type": "Feature", "properties": {"norad_id": 29969, "name": "FENGYUN 1C DEB", "group": "fengyun-1c-debris", "lat": 74.70816186556672, "lon": -63.4647285958769, "alt_km": 771.0792091797948, "timestamp": "2025-12-23T16:57:12.625019+00:00", "meta": {"OBJECT_NAME": "FENGYUN 1C DEB", "OBJECT_ID": "1999-025KT", "EPOCH": "2025-12-23T05:00:07.754976", "MEAN_MOTION": 14.33306773, "ECCENTRICITY": 0.00408961, "INCLINATION": 98.7711, "RA_OF_ASC_NODE": 81.6512, "ARG_OF_PERICENTER": 18.5989, "MEAN_ANOMALY": 35.4487, "EPHEMERIS_TYPE": 0, "CLASSIFICATION_TYPE": "U", "NORAD_CAT_ID": 29969, "ELEMENT_SET_NO": 999, "REV_AT_EPOCH": 97812, "BSTAR": 0.0017085318, "MEAN_MOTION_DOT": 4.706e-05, "MEAN_MOTION_DDOT": 0}, "tle": {"line1": "1 29969U 99025KT  25357.20842309  .00004706  00000+0  17085-2 0  9999", "line2": "2 29969  98.7711  81.6512 0040896  18.5989  35.4487 14.33306773978125"}}, "geometry": {"type": "Point", "coordinates": [-63.4647285958769, 74.70816186556672]}}, {"type": "Feature", "properties": {"norad_id": 29970, "name": "FENGYUN 1C DEB", "group": "fengyun-1c-debris", "lat": 8.541149877687477, "lon": -74.93092713683767, "alt_km": 800.8338076411428, "timestamp": "2025-12-23T16:57:12.625029+00:00", "meta": {"OBJECT_NAME": "FENGYUN 1C DEB", "OBJECT_ID": "1999-025KU", "EPOCH": "2025-12-23T01:59:52.673856", "MEAN_MOTION": 14.43980296, "ECCENTRICITY": 0.00913036, "INCLINATION": 98.8098, "RA_OF_ASC_NODE": 285.7587, "ARG_OF_PERICENTER": 156.5459, "MEAN_ANOMALY": 215.3361, "EPHEMERIS_TYPE": 0, "CLASSIFICATION_TYPE": "U", "NORAD_CAT_ID": 29970, "ELEMENT_SET_NO": 999, "REV_AT_EPOCH": 99270, "BSTAR": 0.00036299196, "MEAN_MOTION_DOT": 1.255e-05, "MEAN_MOTION_DDOT": 0}, "tle": {"line1": "1 29970U 99025KU  25357.08324854  .00001255  00000+0  36299-3 0  9992", "line2": "2 29970  98.8098 285.7587 0091303 156.5459 215.3361 14.43980296992708"}}, "geometry": {"type": "Point", "coordinates": [-74.93092713683767, 8.541149877687477]}}, {"type": "Feature", "properties": {"norad_id": 29971, "name": "FENGYUN 1C DEB", "group": "fengyun-1c-debris", "lat": 50.53787055430355, "lon": 26.539730029011395, "alt_km": 825.389403240044, "timestamp": "2025-12-23T16:57:12.625039+00:00", "meta": {"OBJECT_NAME": "FENGYUN 1C DEB", "OBJECT_ID": "1999-025KV", "EPOCH": "2025-12-23T01:47:58.381728", "MEAN_MOTION": 14.18211712, "ECCENTRICITY": 0.00240977, "INCLINATION": 98.6824, "RA_OF_ASC_NODE": 36.6192, "ARG_OF_PERICENTER": 138.9797, "MEAN_ANOMALY": 290.8009, "EPHEMERIS_TYPE": 0, "CLASSIFICATION_TYPE": "U", "NORAD_CAT_ID": 29971, "ELEMENT_SET_NO": 999, "REV_AT_EPOCH": 97486, "BSTAR": 0.00074533814, "MEAN_MOTION_DOT": 1.494e-05, "MEAN_MOTION_DDOT": 0}, "tle": {"line1": "1 29971U 99025KV  25357.07498127  .00001494  00000+0  74534-3 0  9996", "line2": "2 29971  98.6824  36.6192 0024097 138.9797 290.8009 14.18211712974860"}}, "geometry": {"type": "Point", "coordinates": [26.539730029011395, 50.53787055430355]}}, {"type": "Feature", "properties": {"norad_id": 29972, "name": "FENGYUN 1C DEB", "group": "fengyun-1c-debris", "lat": -43.508536072367654, "lon": 19.330362005149492, "alt_km": 637.0891811908868, "timestamp": "2025-12-23T16:57:12.625049+00:00", "meta": {"OBJECT_NAME": "FENGYUN 1C DEB", "OBJECT_ID": "1999-025KW", "EPOCH": "2025-12-23T00:53:09.710016", "MEAN_MOTION": 14.6647596, "ECCENTRICITY": 0.00642243, "INCLINATION": 98.9203, "RA_OF_ASC_NODE": 10.0288, "ARG_OF_PERICENTER": 340.5344, "MEAN_ANOMALY": 43.3292, "EPHEMERIS_TYPE": 0, "CLASSIFICATION_TYPE": "U", "NORAD_CAT_ID": 29972, "ELEMENT_SET_NO": 999, "REV_AT_EPOCH": 99637, "BSTAR": 0.001297384, "MEAN_MOTION_DOT": 7.355e-05, "MEAN_MOTION_DDOT": 0}, "tle": {"line1": "1 29972U 99025KW  25357.03691794  .00007355  00000+0  12974-2 0  9999", "line2": "2 29972  98.9203  10.0288 0064224 340.5344  43.3292 14.66475960996377"}}, "geometry": {"type": "Point", "coordinates": [19.330362005149492, -43.508536072367654]}}]}